OBJECT_NAME,OBJECT_ID,EPOCH,MEAN_MOTION,ECCENTRICITY,INCLINATION,RA_OF_ASC_NODE,ARG_OF_PERICENTER,MEAN_ANOMALY,EPHEMERIS_TYPE,CLASSIFICATION_TYPE,NORAD_CAT_ID,ELEMENT_SET_NO,REV_AT_EPOCH,BSTAR,MEAN_MOTION_DOT,MEAN_MOTION_DDOT
TANSAT,2016-081A,2026-06-18T14:51:39.046752,14.59951716,.001951,98.5358,169.9194,307.6770,52.2660,0,U,41898,999,50483,.45716924E-4,.169E-5,0
JILIN-1 03,2017-002B,2026-06-18T14:00:32.117184,15.41604093,.00069658,97.1947,176.6484,150.2843,209.8802,0,U,41914,999,52207,.24837776E-3,.10375E-3,0
CARTOSAT-2D,2017-008A,2026-06-18T14:34:45.297408,15.19218097,.00038249,97.4103,228.8873,228.5862,131.5044,0,U,41948,999,51779,.21518673E-3,.4464E-4,0
CARTOSAT-2E,2017-036C,2026-06-18T15:00:23.971680,15.19267288,.00023841,97.4273,229.4044,313.5778,46.5259,0,U,42767,999,49836,.22598399E-3,.4698E-4,0
IRIDIUM 113,2017-039A,2026-06-18T10:14:03.192576,14.34217648,.0002161,86.3967,321.6607,89.1855,270.9589,0,U,42803,999,47136,-.953941E-6,.17E-6,0
NORSAT 2,2017-042D,2026-06-18T11:22:43.799520,15.21948429,.00103961,97.4039,342.8935,53.3457,306.8733,0,U,42828,999,48793,.35686988E-3,.808E-4,0
TECHNOSAT,2017-042E,2026-06-18T09:06:35.299872,15.04968515,.00190303,97.4292,326.9915,90.4858,269.8549,0,U,42829,999,48688,.2123523E-3,.2963E-4,0
FLYING LAPTOP,2017-042G,2026-06-18T14:02:52.780704,15.01153248,.00196076,97.4693,325.0638,117.0555,243.2674,0,U,42831,999,48666,.21898365E-3,.276E-4,0
WNISAT 1R,2017-042L,2026-06-18T10:11:18.556512,15.01767059,.00113108,97.4839,325.5022,143.3168,216.8834,0,U,42835,999,48669,.14104675E-3,.1781E-4,0
LEMUR-2-GREENBERG,2017-042N,2026-06-18T11:01:19.276896,15.31359663,.00083949,97.3821,350.0774,9.3280,350.8115,0,U,42837,999,48858,.4289866E-3,.12937E-3,0
LEMUR-2-FURIAUS,2017-042R,2026-06-18T10:53:40.308000,15.30285769,.00081076,97.3770,348.0240,65.3345,294.8739,0,U,42840,999,48840,.47783719E-3,.13947E-3,0
CORVUS BC2,2017-042X,2026-06-18T09:22:27.433056,15.06304598,.00144335,97.4071,330.6930,106.7137,253.5676,0,U,42846,999,48724,.21696047E-3,.3135E-4,0
CORVUS BC1,2017-042Y,2026-06-18T12:25:47.597664,15.06474492,.00134476,97.4106,331.6305,85.2271,275.0492,0,U,42847,999,48729,.18905488E-3,.2736E-4,0
VRSS-2,2017-060A,2026-06-18T14:32:16.863072,14.81198760,.00186614,97.6505,207.2690,94.5787,265.7558,0,U,42954,999,46866,.17934598E-3,.135E-4,0
MOHAMMED VI-A,2017-070A,2026-06-18T15:12:15.090336,14.77072512,.000135,97.9559,241.9449,72.1442,287.9916,0,U,43005,999,46419,.15124831E-3,.1017E-4,0
FENGYUN 3D,2017-072A,2026-06-18T15:03:21.345696,14.19739733,.00025187,99.0128,144.0761,60.3277,299.8149,0,U,43010,999,44519,.88264038E-4,.141E-5,0
NOAA 20 (JPSS-1),2017-073A,2026-06-18T13:14:55.779936,14.19511933,.00003088,98.7770,109.0025,107.8693,252.2517,0,U,43013,999,44466,.38608673E-4,.37E-6,0
MAKERSAT 0,2017-073D,2026-06-18T14:48:09.690912,15.32138108,.01050198,97.4614,52.1465,267.8006,91.1207,0,U,43016,999,46668,.38538024E-3,.14158E-3,0
RADFXSAT (FOX-1B),2017-073E,2026-06-17T14:31:00.659136,15.12722439,.0149538,97.4696,35.8108,327.7970,31.4193,0,U,43017,999,46545,.24962E-3,.5679E-4,0
JILIN-1 04,2017-074A,2026-06-18T13:52:47.029440,15.42470141,.00042989,97.4863,279.2277,173.7813,186.3488,0,U,43022,999,47448,.24746317E-3,.1063E-3,0
JILIN-1 05,2017-074B,2026-06-18T13:21:11.225952,15.33893823,.00044909,97.4868,275.7288,208.6569,151.4427,0,U,43023,999,47421,.20285942E-3,.6571E-4,0
JILIN-1 06,2017-074C,2026-06-18T14:14:27.365856,15.33706273,.00058109,97.4795,272.7743,224.6503,135.4272,0,U,43024,999,47405,.15433482E-3,.495E-4,0
IRIDIUM 116,2017-083C,2026-06-17T23:34:43.127040,14.34217536,.00018781,86.3960,321.6688,99.6975,260.4433,0,U,43072,999,44428,-.9029542E-5,-.6E-7,0
IRIDIUM 130,2017-083D,2026-06-18T08:51:50.836032,14.34219243,.00019461,86.3973,321.7822,92.8921,267.2497,0,U,43073,999,44428,.47721682E-4,.153E-5,0
LKW-2,2017-084A,2026-06-18T14:26:44.298240,15.26356554,.00012343,97.1182,209.3321,171.9153,188.2106,0,U,43080,999,47190,.2450998E-3,.6302E-4,0
SUPERVIEW-1 03,2018-002A,2026-06-18T14:18:10.825632,15.39297281,.00472826,97.3132,254.4311,174.5124,185.6650,0,U,43099,999,46858,.36067835E-3,.14544E-3,0
CARTOSAT-2F,2018-004A,2026-06-18T14:11:56.624640,15.19224204,.000081,97.4781,229.2132,198.3203,161.8003,0,U,43111,999,46754,.19058394E-3,.3945E-4,0
LKW-3,2018-006A,2026-06-18T14:50:04.875072,15.35271248,.00019433,97.6616,330.2472,315.9850,44.1237,0,U,43146,999,46893,.22638323E-3,.7668E-4,0
